ONEWEB-0687             
1 61595U 24188B   25308.30783788  .00000079  00000+0  17080-3 0  9995
2 61595  87.9119  50.6203 0001466  81.6224 278.5073 13.17651884 56286
ONEWEB-0688             
1 61596U 24188C   25308.18465502  .00000038  00000+0  64447-4 0  9998
2 61596  87.9119  50.6449 0000427 100.2018 259.9162 13.17650827 56260
ONEWEB-0689             
1 61597U 24188D   25308.26788807 -.00000190  00000+0 -57170-3 0  9999
2 61597  87.8831  65.8315 0001618  88.2654 271.8659 13.11416556 54978
ONEWEB-0690             
1 61598U 24188E   25308.27807047 -.00000465  00000+0 -13477-2 0  9995
2 61598  87.8868  65.8309 0001966 122.0501 238.0819 13.11415939 55154
ONEWEB-0691             
1 61599U 24188F   25308.27297664 -.00000414  00000+0 -12030-2 0  9992
2 61599  87.8799  65.7510 0001187 104.3349 255.7911 13.11414300 55003
ONEWEB-0692             
1 61600U 24188G   25308.29334113 -.00000725  00000+0 -20823-2 0  9992
2 61600  87.8837  65.8802 0002694  91.7611 268.3826 13.11417303 54997
ONEWEB-0693             
1 61601U 24188H   25308.27240255  .00000042  00000+0  74260-4 0  9990
2 61601  87.9119  50.6464 0001842 128.2836 231.8461 13.17649909 56264
ONEWEB-0695             
1 61602U 24188J   25308.26958755 -.00000225  00000+0 -67140-3 0  9994
2 61602  87.8849  65.8737 0001926  84.9711 275.1637 13.11416723 54981
